0 COSMOS 1275 DEB
1 12704U 81053AY  13281.72638481  .00000316  00000-0  34597-3 0  9299
2 12704 082.9879 267.3600 0086309 199.9931 222.8358 13.67977078603251
0 COSMOS 1275 DEB
1 12704U 81053AY  13283.99228981  .00000305  00000-0  33327-3 0  9300
2 12704 082.9880 265.7119 0086435 193.7071 221.8137 13.67978950603565
0 COSMOS 1275 DEB
1 12704U 81053AY  13286.34652461  .00000254  00000-0  27407-3 0  9312
2 12704 082.9883 263.9992 0086564 187.1659 295.8169 13.67980268603885
0 COSMOS 1275 DEB
1 12704U 81053AY  13288.40087750  .00000328  00000-0  35923-3 0  9329
2 12704 082.9887 262.5046 0086719 181.5012 332.9465 13.67981711604165
0 COSMOS 1275 DEB
1 12704U 81053AY  13291.01684902  .00000325  00000-0  35510-3 0  9332
2 12704 082.9893 260.6015 0086893 174.2785 255.9200 13.67983253604520
0 COSMOS 1275 DEB
1 12704U 81053AY  13293.20927263  .00000398  00000-0  43917-3 0  9346
2 12704 082.9895 259.0070 0087030 168.2432 253.0272 13.67984616604826
0 COSMOS 1275 DEB
1 12704U 81053AY  13295.41741358  .00000443  00000-0  49059-3 0  9355
2 12704 082.9896 257.4012 0087163 162.1153 327.5982 13.67986818605120
